INTELSAT 902 (IS-902)   
1 26900U 01039A   26185.14099701 -.00000274  00000+0  00000+0 0  9995
2 26900   6.1589  71.5754 0004288  29.8464 181.3792  1.00271305 90865
INTELSAT 904 (IS-904)   
1 27380U 02007A   26185.17261547 -.00000217  00000+0  00000+0 0  9993
2 27380   6.9595  68.9807 0006133  17.8107 226.0553  1.00270910 51932
DIRECTV 5 (TEMPO 1)     
1 27426U 02023A   26184.39558781 -.00000048  00000+0  00000+0 0  9996
2 27426   4.9166  75.1124 0003513  37.3501 201.2642  1.00271698 88287
INTELSAT 905 (IS-905)   
1 27438U 02027A   26185.46503137  .00000103  00000+0  00000+0 0  9998
2 27438   6.7939  69.5924 0003909  37.3315 205.7634  1.00272861 51536
GALAXY 3C (G-3C)        
1 27445U 02030A   26185.55990191 -.00000142  00000+0  00000+0 0  9994
2 27445   3.7748  77.7551 0001834  31.5945 279.9613  1.00271698 46661
INTELSAT 906 (IS-906)   
1 27513U 02041A   26185.23491074  .00000023  00000+0  00000+0 0  9990
2 27513   5.8447  72.7112 0004048  12.2630 345.9757  1.00270893 87193
GALAXY 13 (HORIZONS-1)  
1 27954U 03044A   26185.54892325  .00000144  00000+0  00000+0 0  9995
2 27954   1.4633  83.6411 0001715  17.6181 228.8891  1.00273161 46747
INTELSAT 10-02          
1 28358U 04022A   26185.57836200  .00000001  00000+0  00000+0 0  9996
2 28358   0.0388 262.0401 0000187 278.3115 309.4396  1.00270285 80732
DIRECTV 8               
1 28659U 05019A   26185.52576216  .00000000  00000+0  00000+0 0  9999
2 28659   0.0203  39.5164 0003217  78.6069 234.6403  1.00269894 77245
GALAXY 28 (G-28)        
1 28702U 05022A   26185.42979051 -.00000189  00000+0  00000+0 0  9994
2 28702   3.3403  78.7261 0002526  22.7948 308.5458  1.00272552 52141
GALAXY 16 (G-16)        
1 29236U 06023A   26185.55903523 -.00000114  00000+0  00000+0 0  9992
2 29236   0.0268 137.1326 0002665 326.5409 281.1491  1.00271361 73143
DIRECTV 9S              
1 29494U 06043A   26185.55860190 -.00000102  00000+0  00000+0 0  9999
2 29494   2.4627  80.7023 0005302  25.9155 275.8514  1.00271662 51551
GALAXY 17 (G-17)        
1 31307U 07016B   26185.56180859 -.00000195  00000+0  00000+0 0  9996
2 31307   3.0129  79.6895 0003928  24.3764 295.7369  1.00270317 69976
INTELSAT 11 (IS-11)     
1 32253U 07044B   26185.44594032  .00000085  00000+0  00000+0 0  9994
2 32253   3.6074  78.4670 0003611  91.6231 322.7644  0.99048477 68620
HORIZONS-2              
1 32388U 07063B   26185.56406193 -.00000242  00000+0  00000+0 0  9993
2 32388   2.6440  80.4222 0004005  10.6255 320.7838  1.00273581 67986
DIRECTV 11              
1 32729U 08013A   26185.34513737 -.00000114  00000+0  00000+0 0  9995
2 32729   0.0259 246.2358 0000364 212.6411 208.5524  1.00271086 45764
GALAXY 18 (G-18)        
1 32951U 08024A   26185.55426854  .00000037  00000+0  00000+0 0  9993
2 32951   0.0181  71.8339 0003121  39.4648 247.8036  1.00272360 46027
GALAXY 19 (G-19)        
1 33376U 08045A   26185.55946858 -.00000127  00000+0  00000+0 0  9990
2 33376   0.0462 244.5201 0002918 237.0206 265.4299  1.00271097 65076
FM-5                    
1 35493U 09034A   26183.77931601 -.00000189  00000+0  00000+0 0  9991
2 35493   0.0343 275.0250 0000963  71.7322 128.4433  1.00271535 46804
INTELSAT 14 (IS-14)     
1 36097U 09064A   26185.42713356 -.00000261  00000+0  00000+0 0  9995
2 36097   0.0153 310.8772 0002564 152.0517 288.2859  1.00272840 60778
INTELSAT 15 (IS-15)     
1 36106U 09067A   26185.59556870 -.00000173  00000+0  00000+0 0  9995
2 36106   0.0024  49.3839 0002325  61.4333 111.3450  1.00271920 41408
DIRECTV 12              
1 36131U 09075A   26183.63349326 -.00000092  00000+0  00000+0 0  9991
2 36131   0.0418 186.0830 0000293 277.3252 302.5946  1.00269592 46707
INTELSAT 16 (IS-16)     
1 36397U 10006A   26185.56345525 -.00000232  00000+0  00000+0 0  9998
2 36397   0.0124  25.9551 0002432  95.8886 287.3784  1.00271729 59821
XM-5                    
1 37185U 10053A   26183.85406361 -.00000012  00000+0  00000+0 0  9998
2 37185   0.0667 268.1133 0002415 288.6084 276.4302  1.00271810 57643
INTELSAT 17 (IS-17)     
1 37238U 10065B   26185.65915297  .00000011  00000+0  00000+0 0  9991
2 37238   0.0048  42.3237 0002560  65.1480 118.4712  1.00272080 53423
INTELSAT 28 (IS-28)     
1 37392U 11016A   26185.42982025 -.00000214  00000+0  00000+0 0  9993
2 37392   1.8479  82.4220 0003872  24.4166 298.5955  1.00271462 53459
INTELSAT 18 (IS-18)     
1 37834U 11056A   26185.54302988  .00000065  00000+0  00000+0 0  9998
2 37834   0.0229 286.0165 0001974 184.6892 187.3305  1.00271859 53982
INTELSAT 22 (IS-22)     
1 38098U 12011A   26185.52169510 -.00000046  00000+0  00000+0 0  9993
2 38098   0.0203  54.2927 0001700  45.9184  82.2166  1.00271382  7368
INTELSAT 19 (IS-19)     
1 38356U 12030A   26185.46899458 -.00000044  00000+0  00000+0 0  9993
2 38356   0.0192  30.6964 0003323  82.9685 143.6507  1.00271580 50629
INTELSAT 20 (IS-20)     
1 38740U 12043A   26185.09323829 -.00000012  00000+0  00000+0 0  9992
2 38740   0.0072  61.0631 0001217 120.4399 202.6599  1.00270704 50918
INTELSAT 21 (IS-21)     
1 38749U 12045A   26185.49586832 -.00000273  00000+0  00000+0 0  9991
2 38749   0.0219 288.9253 0001866 189.6101 284.4917  1.00271801 50694
